QIANFAN-60              
1 62790U 25016F   25215.55745653  .00000016  00000+0  62055-5 0  9992
2 62790  88.9826 116.6407 0016235  10.8758 349.2741 13.50957164 29516
QIANFAN-61              
1 62791U 25016G   25215.19968957  .00000130  00000+0  18238-3 0  9996
2 62791  88.9895 116.7458 0015662  10.9081 349.2407 13.50958054 29487
QIANFAN-62              
1 62792U 25016H   25215.49988945  .00000128  00000+0  17959-3 0  9995
2 62792  88.9841 116.6547 0017042   9.7581 350.3898 13.50957084 29515
QIANFAN-63              
1 62793U 25016J   25215.51224878  .00000114  00000+0  15719-3 0  9994
2 62793  88.9847 116.5932 0016991  14.0809 346.0813 13.50954127 29551
QIANFAN-64              
1 62794U 25016K   25215.20771725  .00000056  00000+0  68871-4 0  9992
2 62794  88.9835 116.6222 0014676   9.9572 350.1867 13.50956492 29507
QIANFAN-65              
1 62795U 25016L   25214.52480565  .00000126  00000+0  17700-3 0  9998
2 62795  88.9831 116.7201 0014978  13.4964 346.6585 13.50960452 29397
QIANFAN-66              
1 62796U 25016M   25215.22005172  .00000125  00000+0  17562-3 0  9999
2 62796  88.9850 116.5930 0015872   6.8796 353.2570 13.50955710 29534
QIANFAN-67              
1 62797U 25016N   25214.85397162  .00000119  00000+0  16562-3 0  9993
2 62797  88.9841 116.6690 0016126  14.3041 345.8564 13.50964322 29459
QIANFAN-68              
1 62798U 25016P   25215.52461029  .00000120  00000+0  16743-3 0  9996
2 62798  88.9843 116.6438 0016620  10.6004 349.5494 13.50961859 29522
QIANFAN-69              
1 62799U 25016Q   25214.78801506  .00000120  00000+0  16717-3 0  9993
2 62799  88.9823 116.6140 0016897  13.5030 346.6570 13.50957360 29466
QIANFAN-70              
1 62800U 25016R   25215.54520474  .00000119  00000+0  16556-3 0  9992
2 62800  88.9843 116.6469 0016071   2.5462 357.5768 13.50961305 29527
QIANFAN-71              
1 62801U 25016S   25215.54117278  .00000126  00000+0  17628-3 0  9996
2 62801  88.9837 116.6349 0016852  14.7707 345.3933 13.50961135 29522
QIANFAN-72              
1 62802U 25016T   25215.53690648  .00000109  00000+0  15053-3 0  9994
2 62802  88.9827 116.6567 0020447  19.7176 340.4761 13.50956462 29515
QIANFAN-73              
1 63159U 25046A   25215.21429281  .00000128  00000+0  17937-3 0  9995
2 63159  88.9858 333.5759 0016532 139.9251 220.3123 13.50958878 29653
QIANFAN-74              
1 63160U 25046B   25215.49413928  .00000142  00000+0  20082-3 0  9999
2 63160  88.9858 333.4359 0001958 102.9015 257.2355 13.50963531 29753
QIANFAN-75              
1 63161U 25046C   25214.81522419  .00000147  00000+0  20869-3 0  9999
2 63161  88.9859 333.7372 0017614 144.0943 216.1395 13.50959747 29534
QIANFAN-76              
1 63162U 25046D   25214.81093913  .00000158  00000+0  22519-3 0  9998
2 63162  88.9859 333.7188 0015177 143.9735 216.2442 13.50955812 29543
QIANFAN-77              
1 63163U 25046E   25215.16236000  .00000339  00000+0  23740-3 0  9992
2 63163  88.9856 332.7683 0016693 127.8793 232.3896 13.96006415 30099
QIANFAN-78              
1 63164U 25046F   25215.51881196  .00000150  00000+0  21317-3 0  9993
2 63164  88.9858 333.5117 0016544 144.7072 215.5178 13.50959397 29715
QIANFAN-79              
1 63165U 25046G   25214.80687509  .00000166  00000+0  23800-3 0  9993
2 63165  88.9862 333.6870 0016210 144.9342 215.2879 13.50961294 29578
QIANFAN-80              
1 63166U 25046H   25214.82344747  .00000136  00000+0  19139-3 0  9997
2 63166  88.9859 333.3959 0015109 148.4876 211.7183 13.50961498 29729
QIANFAN-81              
1 63167U 25046J   25215.24723031  .00000143  00000+0  20280-3 0  9999
2 63167  88.9859 333.4209 0016370 137.1790 223.0639 13.50960482 29735
QIANFAN-82              
1 63168U 25046K   25215.20593994  .00000045  00000+0  51422-4 0  9993
2 63168  88.9859 333.4686 0014374 143.8695 216.3430 13.50957151 29716
QIANFAN-83              
1 63169U 25046L   25215.19131433  .00000176  00000+0  21280-3 0  9991
2 63169  88.9859 333.5040 0015790 137.3589 222.8798 13.61931373 29703
QIANFAN-84              
1 63170U 25046M   25215.53106608  .00000156  00000+0  22246-3 0  9998
2 63170  88.9859 333.5684 0017413 140.5675 219.6747 13.50964318 29683
QIANFAN-85              
1 63171U 25046N   25215.23074908  .00000121  00000+0  16792-3 0  9994
2 63171  88.9858 333.4714 0014727 142.9480 217.2691 13.50958340 29715
QIANFAN-86              
1 63172U 25046P   25215.23897720  .00000145  00000+0  20558-3 0  9991
2 63172  88.9861 333.3296 0012533 145.9053 214.2906 13.50958709 29799
QIANFAN-87              
1 63173U 25046Q   25214.83973599  .00000163  00000+0  23342-3 0  9990
2 63173  88.9857 333.4872 0013308 142.7296 217.4781 13.50956485 29673
QIANFAN-88              
1 63174U 25046R   25214.78232551  .00000135  00000+0  19007-3 0  9993
2 63174  88.9859 333.4444 0013513 150.2046 209.9877 13.50958739 29694
QIANFAN-89              
1 63175U 25046S   25214.81924332  .00000142  00000+0  20044-3 0  9994
2 63175  88.9859 333.6296 0018030 143.0525 217.1872 13.50963475 29591
QIANFAN-90              
1 63176U 25046T   25215.51462187  .00000157  00000+0  22385-3 0  9994
2 63176  88.9860 333.5305 0015058 138.8281 221.4009 13.50962303 29704
